start=new Date('2022-12-28T00:00:00.000Z').valueOf();
sats=[{"MEAN_MOTION_DDOT":"0.0000000000000","MEAN_MOTION_DOT":"0.00002907","SEMIMAJOR_AXIS":"6917.851","OBJECT_NAME":"STARLINK-4102","TLE_LINE2":"2 53143  53.2177  17.1531 0001455  56.1443 303.9688 15.08849775 24905","SITE":"AFETR","EPOCH":"2022-12-27T18:18:27.865728","ELEMENT_SET_NO":"999","RA_OF_ASC_NODE":"17.1531","OBJECT_ID":"2022-083M","BSTAR":"0.00020058000000","INCLINATION":"53.2177","LAUNCH_DATE":"2022-07-17","CLASSIFICATION_TYPE":"U","ARG_OF_PERICENTER":"56.1443","DECAY_DATE":null,"FILE":"3724149","MEAN_ELEMENT_THEORY":"SGP4","NORAD_CAT_ID":"53143","PERIAPSIS":"538.709","COUNTRY_CODE":"US","TIME_SYSTEM":"UTC","GP_ID":"221624472","OBJECT_TYPE":"PAYLOAD","TLE_LINE1":"1 53143U 22083M   22361.76282252  .00002907  00000-0  20058-3 0  9995","MEAN_ANOMALY":"303.9688","EPHEMERIS_TYPE":"0","REF_FRAME":"TEME","CENTER_NAME":"EARTH","REV_AT_EPOCH":"2490","MEAN_MOTION":"15.08849775","ECCENTRICITY":"0.00014550","RCS_SIZE":"LARGE","PERIOD":"95.437","APOAPSIS":"540.722"},{"INCLINATION":"53.2181","BSTAR":"0.00012944000000","LAUNCH_DATE":"2022-07-17","NORAD_CAT_ID":"53144","CLASSIFICATION_TYPE":"U","ARG_OF_PERICENTER":"30.4220","FILE":"3723863","DECAY_DATE":null,"MEAN_ELEMENT_THEORY":"SGP4","OBJECT_NAME":"STARLINK-4100","SEMIMAJOR_AXIS":"6917.861","MEAN_MOTION_DDOT":"0.0000000000000","MEAN_MOTION_DOT":"0.00001772","RA_OF_ASC_NODE":"20.3821","OBJECT_ID":"2022-083N","EPOCH":"2022-12-27T01:05:07.732032","TLE_LINE2":"2 53144  53.2181  20.3821 0002979  30.4220 329.6944 15.08846250 24791","SITE":"AFETR","ELEMENT_SET_NO":"999","RCS_SIZE":"LARGE","PERIOD":"95.437","ECCENTRICITY":"0.00029790","APOAPSIS":"541.787","OBJECT_TYPE":"PAYLOAD","GP_ID":"221566962","TIME_SYSTEM":"UTC","TLE_LINE1":"1 53144U 22083N   22361.04522838  .00001772  00000-0  12944-3 0  9998","COUNTRY_CODE":"US","PERIAPSIS":"537.665","CENTER_NAME":"EARTH","MEAN_MOTION":"15.08846250","REV_AT_EPOCH":"2479","MEAN_ANOMALY":"329.6944","EPHEMERIS_TYPE":"0","REF_FRAME":"TEME"},{"INCLINATION":"53.2190","BSTAR":"0.00007091300000","LAUNCH_DATE":"2022-07-17","CLASSIFICATION_TYPE":"U","ARG_OF_PERICENTER":"25.9044","DECAY_DATE":null,"FILE":"3723863","MEAN_ELEMENT_THEORY":"SGP4","NORAD_CAT_ID":"53145","MEAN_MOTION_DDOT":"0.0000000000000","MEAN_MOTION_DOT":"0.00000841","OBJECT_NAME":"STARLINK-4106","SEMIMAJOR_AXIS":"6917.836","SITE":"AFETR","TLE_LINE2":"2 53145  53.2190  18.6622 0002659  25.9044 334.2081 15.08854419 24856","EPOCH":"2022-12-27T10:10:56.197920","ELEMENT_SET_NO":"999","RA_OF_ASC_NODE":"18.6622","OBJECT_ID":"2022-083P","ECCENTRICITY":"0.00026590","RCS_SIZE":"LARGE","PERIOD":"95.437","APOAPSIS":"541.541","PERIAPSIS":"537.862","COUNTRY_CODE":"US","GP_ID":"221567995","TIME_SYSTEM":"UTC","OBJECT_TYPE":"PAYLOAD","TLE_LINE1":"1 53145U 22083P   22361.42426155  .00000841  00000-0  70913-4 0  9993","MEAN_ANOMALY":"334.2081","EPHEMERIS_TYPE":"0","REF_FRAME":"TEME","CENTER_NAME":"EARTH","REV_AT_EPOCH":"2485","MEAN_MOTION":"15.08854419"},{"REF_FRAME":"TEME","EPHEMERIS_TYPE":"0","MEAN_ANOMALY":"327.0367","MEAN_MOTION":"15.08853258","REV_AT_EPOCH":"2490","CENTER_NAME":"EARTH","COUNTRY_CODE":"US","PERIAPSIS":"537.673","TLE_LINE1":"1 53146U 22083Q   22361.77018072  .00001852  00000-0  13439-3 0  9999","GP_ID":"221624687","TIME_SYSTEM":"UTC","OBJECT_TYPE":"PAYLOAD","APOAPSIS":"541.737","ECCENTRICITY":"0.00029370","PERIOD":"95.437","RCS_SIZE":"LARGE","ELEMENT_SET_NO":"999","TLE_LINE2":"2 53146  53.2180  17.1210 0002937  33.0808 327.0367 15.08853258 24903","SITE":"AFETR","EPOCH":"2022-12-27T18:29:03.614208","OBJECT_ID":"2022-083Q","RA_OF_ASC_NODE":"17.1210","MEAN_MOTION_DOT":"0.00001852","MEAN_MOTION_DDOT":"0.0000000000000","SEMIMAJOR_AXIS":"6917.840","OBJECT_NAME":"STARLINK-4099","MEAN_ELEMENT_THEORY":"SGP4","FILE":"3724149","DECAY_DATE":null,"ARG_OF_PERICENTER":"33.0808","CLASSIFICATION_TYPE":"U","NORAD_CAT_ID":"53146","LAUNCH_DATE":"2022-07-17","INCLINATION":"53.2180","BSTAR":"0.00013439000000"},{"NORAD_CAT_ID":"53147","ARG_OF_PERICENTER":"25.5591","CLASSIFICATION_TYPE":"U","FILE":"3724074","MEAN_ELEMENT_THEORY":"SGP4","DECAY_DATE":null,"INCLINATION":"53.2185","BSTAR":"0.00032566000000","LAUNCH_DATE":"2022-07-17","RA_OF_ASC_NODE":"18.3791","OBJECT_ID":"2022-083R","ELEMENT_SET_NO":"999","TLE_LINE2":"2 53147  53.2185  18.3791 0002835  25.5591 334.5541 15.08859541 25491","SITE":"AFETR","EPOCH":"2022-12-27T11:41:01.565088","OBJECT_NAME":"STARLINK-4094","SEMIMAJOR_AXIS":"6917.821","MEAN_MOTION_DOT":"0.00004901","MEAN_MOTION_DDOT":"0.0000000000000","APOAPSIS":"541.647","RCS_SIZE":"LARGE","PERIOD":"95.436","ECCENTRICITY":"0.00028350","CENTER_NAME":"EARTH","REV_AT_EPOCH":"2549","MEAN_MOTION":"15.08859541","EPHEMERIS_TYPE":"0","MEAN_ANOMALY":"334.5541","REF_FRAME":"TEME","TIME_SYSTEM":"UTC","GP_ID":"221597587","OBJECT_TYPE":"PAYLOAD","TLE_LINE1":"1 53147U 22083R   22361.48682367  .00004901  00000-0  32566-3 0  9992","PERIAPSIS":"537.724","COUNTRY_CODE":"US"},{"LAUNCH_DATE":"2022-07-17","INCLINATION":"53.2192","BSTAR":"0.00016500000000","NORAD_CAT_ID":"53148","DECAY_DATE":null,"FILE":"3724149","MEAN_ELEMENT_THEORY":"SGP4","ARG_OF_PERICENTER":"33.9132","CLASSIFICATION_TYPE":"U","OBJECT_NAME":"STARLINK-4066","SEMIMAJOR_AXIS":"6917.837","MEAN_MOTION_DOT":"0.00002340","MEAN_MOTION_DDOT":"0.0000000000000","OBJECT_ID":"2022-083S","RA_OF_ASC_NODE":"17.1639","ELEMENT_SET_NO":"999","EPOCH":"2022-12-27T18:13:10.031232","TLE_LINE2":"2 53148  53.2192  17.1639 0002274  33.9132 326.2005 15.08854171 24901","SITE":"AFETR","PERIOD":"95.437","RCS_SIZE":"LARGE","ECCENTRICITY":"0.00022740","APOAPSIS":"541.275","TLE_LINE1":"1 53148U 22083S   22361.75914388  .00002340  00000-0  16500-3 0  9999","TIME_SYSTEM":"UTC","GP_ID":"221625542","OBJECT_TYPE":"PAYLOAD","PERIAPSIS":"538.129","COUNTRY_CODE":"US","MEAN_MOTION":"15.08854171","REV_AT_EPOCH":"2490","CENTER_NAME":"EARTH","REF_FRAME":"TEME","EPHEMERIS_TYPE":"0","MEAN_ANOMALY":"326.2005"},{"MEAN_ELEMENT_THEORY":"SGP4","FILE":"3723863","DECAY_DATE":null,"ARG_OF_PERICENTER":"25.9883","CLASSIFICATION_TYPE":"U","NORAD_CAT_ID":"53149","LAUNCH_DATE":"2022-07-17","INCLINATION":"53.2187","BSTAR":"0.00006707600000","ELEMENT_SET_NO":"999","TLE_LINE2":"2 53149  53.2187  10.4244 0002783  25.9883 334.1248 15.08845261 24933","SITE":"AFETR","EPOCH":"2022-12-27T00:45:15.798240","OBJECT_ID":"2022-083T","RA_OF_ASC_NODE":"10.4244","MEAN_MOTION_DOT":"0.00000779","MEAN_MOTION_DDOT":"0.0000000000000","SEMIMAJOR_AXIS":"6917.864","OBJECT_NAME":"STARLINK-4021","APOAPSIS":"541.655","ECCENTRICITY":"0.00027830","PERIOD":"95.437","RCS_SIZE":"LARGE","REF_FRAME":"TEME","EPHEMERIS_TYPE":"0","MEAN_ANOMALY":"334.1248","MEAN_MOTION":"15.08845261","REV_AT_EPOCH":"2493","CENTER_NAME":"EARTH","PERIAPSIS":"537.804","COUNTRY_CODE":"US","TLE_LINE1":"1 53149U 22083T   22361.03143285  .00000779  00000-0  67076-4 0  9990","GP_ID":"221567583","TIME_SYSTEM":"UTC","OBJECT_TYPE":"PAYLOAD"},{"LAUNCH_DATE":"2022-07-17","INCLINATION":"53.2165","BSTAR":"0.00068773000000","DECAY_DATE":null,"FILE":"3724042","MEAN_ELEMENT_THEORY":"SGP4","ARG_OF_PERICENTER":"26.8677","CLASSIFICATION_TYPE":"U","NORAD_CAT_ID":"53150","MEAN_MOTION_DOT":"0.00010682","MEAN_MOTION_DDOT":"0.0000000000000","SEMIMAJOR_AXIS":"6917.804","OBJECT_NAME":"STARLINK-4038","ELEMENT_SET_NO":"999","TLE_LINE2":"2 53150  53.2165   8.1574 0002812  26.8677 333.2461 15.08865114 25639","SITE":"AFETR","EPOCH":"2022-12-27T12:51:14.795424","OBJECT_ID":"2022-083U","RA_OF_ASC_NODE":"8.1574","ECCENTRICITY":"0.00028120","PERIOD":"95.436","RCS_SIZE":"LARGE","APOAPSIS":"541.614","PERIAPSIS":"537.723","COUNTRY_CODE":"US","TLE_LINE1":"1 53150U 22083U   22361.53558791  .00010682  00000-0  68773-3 0  9997","OBJECT_TYPE":"PAYLOAD","GP_ID":"221596892","TIME_SYSTEM":"UTC","REF_FRAME":"TEME","EPHEMERIS_TYPE":"0","MEAN_ANOMALY":"333.2461","REV_AT_EPOCH":"2563","MEAN_MOTION":"15.08865114","CENTER_NAME":"EARTH"},{"NORAD_CAT_ID":"53151","CLASSIFICATION_TYPE":"U","ARG_OF_PERICENTER":"19.9297","FILE":"3723863","DECAY_DATE":null,"MEAN_ELEMENT_THEORY":"SGP4","INCLINATION":"53.2193","BSTAR":"0.00005452500000","LAUNCH_DATE":"2022-07-17","RA_OF_ASC_NODE":"8.5077","OBJECT_ID":"2022-083V","EPOCH":"2022-12-27T10:59:57.628032","TLE_LINE2":"2 53151  53.2193   8.5077 0002849  19.9297 340.1806 15.08848156 24999","SITE":"AFETR","ELEMENT_SET_NO":"999","OBJECT_NAME":"STARLINK-4040","SEMIMAJOR_AXIS":"6917.855","MEAN_MOTION_DDOT":"0.0000000000000","MEAN_MOTION_DOT":"0.00000580","APOAPSIS":"541.691","RCS_SIZE":"LARGE","PERIOD":"95.437","ECCENTRICITY":"0.00028490","CENTER_NAME":"EARTH","MEAN_MOTION":"15.08848156","REV_AT_EPOCH":"2499","MEAN_ANOMALY":"340.1806","EPHEMERIS_TYPE":"0","REF_FRAME":"TEME","GP_ID":"221567169","TIME_SYSTEM":"UTC","OBJECT_TYPE":"PAYLOAD","TLE_LINE1":"1 53151U 22083V   22361.45830588  .00000580  00000-0  54525-4 0  9993","PERIAPSIS":"537.750","COUNTRY_CODE":"US"},{"INCLINATION":"53.2170","BSTAR":"0.00067585000000","LAUNCH_DATE":"2022-07-17","ARG_OF_PERICENTER":"31.8920","CLASSIFICATION_TYPE":"U","FILE":"3723863","DECAY_DATE":null,"MEAN_ELEMENT_THEORY":"SGP4","NORAD_CAT_ID":"53152","MEAN_MOTION_DOT":"0.00010492","MEAN_MOTION_DDOT":"0.0000000000000","OBJECT_NAME":"STARLINK-4045","SEMIMAJOR_AXIS":"6917.806","ELEMENT_SET_NO":"999","TLE_LINE2":"2 53152  53.2170   8.4729 0002718  31.8920 328.2237 15.08864498 24991","SITE":"AFETR","EPOCH":"2022-12-27T11:10:33.467232","RA_OF_ASC_NODE":"8.4729","OBJECT_ID":"2022-083W","ECCENTRICITY":"0.00027180","RCS_SIZE":"LARGE","PERIOD":"95.436","APOAPSIS":"541.551","PERIAPSIS":"537.790","COUNTRY_CODE":"US","GP_ID":"221566963","OBJECT_TYPE":"PAYLOAD","TIME_SYSTEM":"UTC","TLE_LINE1":"1 53152U 22083W   22361.46566513  .00010492  00000-0  67585-3 0  9991","EPHEMERIS_TYPE":"0","MEAN_ANOMALY":"328.2237","REF_FRAME":"TEME","CENTER_NAME":"EARTH","REV_AT_EPOCH":"2499","MEAN_MOTION":"15.08864498"}];
